start=new Date('2021-09-30T00:00:00.000Z').valueOf();
sats=[{"MEAN_MOTION_DOT":"0.00001405","TLE_LINE1":"1 44952U 20001AQ  21272.42538350  .00001405  00000-0  11323-3 0  9994","OBJECT_NAME":"STARLINK-1117","FILE":"3134986","MEAN_ELEMENT_THEORY":"SGP4","REF_FRAME":"TEME","CENTER_NAME":"EARTH","APOAPSIS":"548.388","EPOCH":"2021-09-29T10:12:33.134400","SITE":"AFETR","TLE_LINE2":"2 44952  53.0552  49.2489 0001673 106.2859 253.8314 15.06394743 95619","RA_OF_ASC_NODE":"49.2489","DECAY_DATE":null,"PERIAPSIS":"546.071","SEMIMAJOR_AXIS":"6925.365","INCLINATION":"53.0552","ECCENTRICITY":"0.00016730","MEAN_MOTION":"15.06394743","OBJECT_TYPE":"PAYLOAD","REV_AT_EPOCH":"9561","TIME_SYSTEM":"UTC","GP_ID":"185790357","CLASSIFICATION_TYPE":"U","ARG_OF_PERICENTER":"106.2859","BSTAR":"0.00011323000000","MEAN_MOTION_DDOT":"0.0000000000000","ELEMENT_SET_NO":"999","EPHEMERIS_TYPE":"0","PERIOD":"95.592","LAUNCH_DATE":"2020-01-07","NORAD_CAT_ID":"44952","MEAN_ANOMALY":"253.8314","OBJECT_ID":"2020-001AQ","COUNTRY_CODE":"US","RCS_SIZE":"LARGE"},{"OBJECT_TYPE":"PAYLOAD","MEAN_MOTION":"15.06397325","TIME_SYSTEM":"UTC","REV_AT_EPOCH":"9689","GP_ID":"185791107","INCLINATION":"53.0558","ECCENTRICITY":"0.00014120","LAUNCH_DATE":"2020-01-07","PERIOD":"95.592","OBJECT_ID":"2020-001AR","MEAN_ANOMALY":"256.4948","NORAD_CAT_ID":"44953","COUNTRY_CODE":"US","RCS_SIZE":"LARGE","CLASSIFICATION_TYPE":"U","ARG_OF_PERICENTER":"103.6199","ELEMENT_SET_NO":"999","MEAN_MOTION_DDOT":"0.0000000000000","BSTAR":"0.00005577900000","EPHEMERIS_TYPE":"0","TLE_LINE1":"1 44953U 20001AR  21272.37652369  .00000549  00000-0  55779-4 0  9998","FILE":"3134986","OBJECT_NAME":"STARLINK-1124","MEAN_ELEMENT_THEORY":"SGP4","REF_FRAME":"TEME","MEAN_MOTION_DOT":"0.00000549","RA_OF_ASC_NODE":"49.5148","DECAY_DATE":null,"SEMIMAJOR_AXIS":"6925.357","PERIAPSIS":"546.244","CENTER_NAME":"EARTH","SITE":"AFETR","EPOCH":"2021-09-29T09:02:11.646816","APOAPSIS":"548.200","TLE_LINE2":"2 44953  53.0558  49.5148 0001412 103.6199 256.4948 15.06397325 96892"},{"MEAN_MOTION_DOT":"0.00001359","REF_FRAME":"TEME","FILE":"3135366","OBJECT_NAME":"STARLINK-1066","MEAN_ELEMENT_THEORY":"SGP4","TLE_LINE1":"1 44954U 20001AS  21272.58940954  .00001359  00000-0  11013-3 0  9994","TLE_LINE2":"2 44954  53.0563  28.5188 0001138  94.0495 266.0624 15.06399910 95863","EPOCH":"2021-09-29T14:08:44.984256","SITE":"AFETR","APOAPSIS":"548.002","CENTER_NAME":"EARTH","DECAY_DATE":null,"PERIAPSIS":"546.426","SEMIMAJOR_AXIS":"6925.349","RA_OF_ASC_NODE":"28.5188","ECCENTRICITY":"0.00011380","INCLINATION":"53.0563","GP_ID":"185802925","TIME_SYSTEM":"UTC","REV_AT_EPOCH":"9586","OBJECT_TYPE":"PAYLOAD","MEAN_MOTION":"15.06399910","EPHEMERIS_TYPE":"0","MEAN_MOTION_DDOT":"0.0000000000000","ELEMENT_SET_NO":"999","BSTAR":"0.00011013000000","ARG_OF_PERICENTER":"94.0495","CLASSIFICATION_TYPE":"U","RCS_SIZE":"LARGE","COUNTRY_CODE":"US","OBJECT_ID":"2020-001AS","NORAD_CAT_ID":"44954","MEAN_ANOMALY":"266.0624","LAUNCH_DATE":"2020-01-07","PERIOD":"95.592"},{"ECCENTRICITY":"0.00013000","INCLINATION":"53.0563","GP_ID":"185802423","REV_AT_EPOCH":"9586","TIME_SYSTEM":"UTC","OBJECT_TYPE":"PAYLOAD","MEAN_MOTION":"15.06398609","EPHEMERIS_TYPE":"0","MEAN_MOTION_DDOT":"0.0000000000000","ELEMENT_SET_NO":"999","BSTAR":"0.00013048000000","ARG_OF_PERICENTER":"91.6462","CLASSIFICATION_TYPE":"U","RCS_SIZE":"LARGE","COUNTRY_CODE":"US","OBJECT_ID":"2020-001AT","MEAN_ANOMALY":"268.4676","NORAD_CAT_ID":"44955","LAUNCH_DATE":"2020-01-07","PERIOD":"95.592","MEAN_MOTION_DOT":"0.00001663","REF_FRAME":"TEME","MEAN_ELEMENT_THEORY":"SGP4","FILE":"3135366","OBJECT_NAME":"STARLINK-1069","TLE_LINE1":"1 44955U 20001AT  21272.59677775  .00001663  00000-0  13048-3 0  9992","TLE_LINE2":"2 44955  53.0563  28.4865 0001300  91.6462 268.4676 15.06398609 95860","EPOCH":"2021-09-29T14:19:21.597600","SITE":"AFETR","APOAPSIS":"548.118","CENTER_NAME":"EARTH","DECAY_DATE":null,"PERIAPSIS":"546.318","SEMIMAJOR_AXIS":"6925.353","RA_OF_ASC_NODE":"28.4865"},{"COUNTRY_CODE":"US","RCS_SIZE":"LARGE","PERIOD":"95.593","LAUNCH_DATE":"2020-01-07","NORAD_CAT_ID":"44956","MEAN_ANOMALY":"255.2136","OBJECT_ID":"2020-001AU","BSTAR":"0.00007788300000","ELEMENT_SET_NO":"999","MEAN_MOTION_DDOT":"0.0000000000000","EPHEMERIS_TYPE":"0","CLASSIFICATION_TYPE":"U","ARG_OF_PERICENTER":"104.8979","REV_AT_EPOCH":"9592","TIME_SYSTEM":"UTC","GP_ID":"185802929","MEAN_MOTION":"15.06393960","OBJECT_TYPE":"PAYLOAD","ECCENTRICITY":"0.00011320","INCLINATION":"53.0558","RA_OF_ASC_NODE":"28.5030","DECAY_DATE":null,"SEMIMAJOR_AXIS":"6925.367","PERIAPSIS":"546.448","TLE_LINE2":"2 44956  53.0558  28.5030 0001132 104.8979 255.2136 15.06393960 95920","CENTER_NAME":"EARTH","APOAPSIS":"548.016","SITE":"AFETR","EPOCH":"2021-09-29T14:14:03.331104","REF_FRAME":"TEME","TLE_LINE1":"1 44956U 20001AU  21272.59309411  .00000879  00000-0  77883-4 0  9998","OBJECT_NAME":"STARLINK-1070","FILE":"3135366","MEAN_ELEMENT_THEORY":"SGP4","MEAN_MOTION_DOT":"0.00000879"},{"CLASSIFICATION_TYPE":"U","ARG_OF_PERICENTER":"92.4306","MEAN_MOTION_DDOT":"0.0000000000000","ELEMENT_SET_NO":"999","BSTAR":"-0.00009184300000","EPHEMERIS_TYPE":"0","LAUNCH_DATE":"2020-01-07","PERIOD":"95.592","OBJECT_ID":"2020-001AV","NORAD_CAT_ID":"44957","MEAN_ANOMALY":"267.6837","COUNTRY_CODE":"US","RCS_SIZE":"LARGE","INCLINATION":"53.0562","ECCENTRICITY":"0.00013430","OBJECT_TYPE":"PAYLOAD","MEAN_MOTION":"15.06406372","TIME_SYSTEM":"UTC","REV_AT_EPOCH":"9592","GP_ID":"185800481","CENTER_NAME":"EARTH","EPOCH":"2021-09-29T14:51:13.388544","SITE":"AFETR","APOAPSIS":"548.124","TLE_LINE2":"2 44957  53.0562  28.3863 0001343  92.4306 267.6837 15.06406372 95925","RA_OF_ASC_NODE":"28.3863","DECAY_DATE":null,"SEMIMAJOR_AXIS":"6925.329","PERIAPSIS":"546.264","MEAN_MOTION_DOT":"-0.00001649","TLE_LINE1":"1 44957U 20001AV  21272.61890496 -.00001649  00000-0 -91843-4 0  9990","OBJECT_NAME":"STARLINK-1074","FILE":"3135288","MEAN_ELEMENT_THEORY":"SGP4","REF_FRAME":"TEME"},{"RA_OF_ASC_NODE":"29.5100","PERIAPSIS":"546.258","DECAY_DATE":null,"SEMIMAJOR_AXIS":"6925.369","TLE_LINE2":"2 44959  53.0567  29.5100 0001410  99.9035 260.2113 15.06393277 95885","CENTER_NAME":"EARTH","APOAPSIS":"548.211","SITE":"AFETR","EPOCH":"2021-09-29T08:50:17.249280","REF_FRAME":"TEME","TLE_LINE1":"1 44959U 20001AX  21272.36825520  .00000182  00000-0  31142-4 0  9995","FILE":"3134986","MEAN_ELEMENT_THEORY":"SGP4","OBJECT_NAME":"STARLINK-1076","MEAN_MOTION_DOT":"0.00000182","COUNTRY_CODE":"US","RCS_SIZE":"LARGE","PERIOD":"95.593","LAUNCH_DATE":"2020-01-07","NORAD_CAT_ID":"44959","MEAN_ANOMALY":"260.2113","OBJECT_ID":"2020-001AX","BSTAR":"0.00003114200000","ELEMENT_SET_NO":"999","MEAN_MOTION_DDOT":"0.0000000000000","EPHEMERIS_TYPE":"0","CLASSIFICATION_TYPE":"U","ARG_OF_PERICENTER":"99.9035","TIME_SYSTEM":"UTC","REV_AT_EPOCH":"9588","GP_ID":"185789356","MEAN_MOTION":"15.06393277","OBJECT_TYPE":"PAYLOAD","ECCENTRICITY":"0.00014100","INCLINATION":"53.0567"},{"OBJECT_ID":"2020-001AZ","MEAN_ANOMALY":"273.5673","NORAD_CAT_ID":"44961","LAUNCH_DATE":"2020-01-07","PERIOD":"95.592","RCS_SIZE":"LARGE","COUNTRY_CODE":"US","ARG_OF_PERICENTER":"86.5438","CLASSIFICATION_TYPE":"U","EPHEMERIS_TYPE":"0","MEAN_MOTION_DDOT":"0.0000000000000","ELEMENT_SET_NO":"999","BSTAR":"0.00005895200000","OBJECT_TYPE":"PAYLOAD","MEAN_MOTION":"15.06406187","GP_ID":"185800500","REV_AT_EPOCH":"9593","TIME_SYSTEM":"UTC","INCLINATION":"53.0555","ECCENTRICITY":"0.00010710","PERIAPSIS":"546.453","DECAY_DATE":null,"SEMIMAJOR_AXIS":"6925.330","RA_OF_ASC_NODE":"28.2808","EPOCH":"2021-09-29T15:23:03.869664","SITE":"AFETR","APOAPSIS":"547.936","CENTER_NAME":"EARTH","TLE_LINE2":"2 44961  53.0555  28.2808 0001071  86.5438 273.5673 15.06406187 95937","FILE":"3135290","OBJECT_NAME":"STARLINK-1080","MEAN_ELEMENT_THEORY":"SGP4","TLE_LINE1":"1 44961U 20001AZ  21272.64101701  .00000597  00000-0  58952-4 0  9995","REF_FRAME":"TEME","MEAN_MOTION_DOT":"0.00000597"},{"ECCENTRICITY":"0.00089860","INCLINATION":"53.0419","GP_ID":"185807634","REV_AT_EPOCH":"9684","TIME_SYSTEM":"UTC","OBJECT_TYPE":"PAYLOAD","MEAN_MOTION":"16.35847011","EPHEMERIS_TYPE":"0","ELEMENT_SET_NO":"999","MEAN_MOTION_DDOT":"0.0000123880000","BSTAR":"0.00157470000000","ARG_OF_PERICENTER":"19.5069","CLASSIFICATION_TYPE":"U","RCS_SIZE":"LARGE","COUNTRY_CODE":"US","OBJECT_ID":"2020-001BA","NORAD_CAT_ID":"44962","MEAN_ANOMALY":"345.8793","LAUNCH_DATE":"2020-01-07","PERIOD":"88.028","MEAN_MOTION_DOT":"0.13570187","REF_FRAME":"TEME","FILE":"3135584","OBJECT_NAME":"STARLINK-1081","MEAN_ELEMENT_THEORY":"SGP4","TLE_LINE1":"1 44962U 20001BA  21273.13018918  .13570187  12388-4  15747-2 0  9998","TLE_LINE2":"2 44962  53.0419 325.3064 0008986  19.5069 345.8793 16.35847011 96845","EPOCH":"2021-09-30T03:07:28.345152","SITE":"AFETR","APOAPSIS":"182.766","CENTER_NAME":"EARTH","PERIAPSIS":"170.985","DECAY_DATE":null,"SEMIMAJOR_AXIS":"6555.010","RA_OF_ASC_NODE":"325.3064"},{"MEAN_MOTION_DOT":"0.00006310","FILE":"3135288","OBJECT_NAME":"STARLINK-1085","MEAN_ELEMENT_THEORY":"SGP4","TLE_LINE1":"1 44963U 20001BB  21272.57829396  .00006310  00000-0  42399-3 0  9992","REF_FRAME":"TEME","APOAPSIS":"543.380","SITE":"AFETR","EPOCH":"2021-09-29T13:52:44.598144","CENTER_NAME":"EARTH","TLE_LINE2":"2 44963  53.0009  25.4028 0001384  74.2782 285.8359 15.07964835 96678","PERIAPSIS":"541.464","DECAY_DATE":null,"SEMIMAJOR_AXIS":"6920.557","RA_OF_ASC_NODE":"25.4028","INCLINATION":"53.0009","ECCENTRICITY":"0.00013840","MEAN_MOTION":"15.07964835","OBJECT_TYPE":"PAYLOAD","GP_ID":"185800932","TIME_SYSTEM":"UTC","REV_AT_EPOCH":"9667","ARG_OF_PERICENTER":"74.2782","CLASSIFICATION_TYPE":"U","EPHEMERIS_TYPE":"0","BSTAR":"0.00042399000000","MEAN_MOTION_DDOT":"0.0000000000000","ELEMENT_SET_NO":"999","MEAN_ANOMALY":"285.8359","NORAD_CAT_ID":"44963","OBJECT_ID":"2020-001BB","PERIOD":"95.493","LAUNCH_DATE":"2020-01-07","RCS_SIZE":"LARGE","COUNTRY_CODE":"US"}];
